{
  "type": "FeatureCollection",
  "features": [
    {
      "type": "Feature",
      "properties": {
        "name": "bbox_fallback",
        "epsg": 32632
      },
      "geometry": {
        "type": "Polygon",
        "coordinates": [
          [
            [
              275902.979139489,
              5073814.027019551
            ],
            [
              285655.50247499923,
              5073469.727131315
            ],
            [
              286176.2951440787,
              5088540.330986916
            ],
            [
              276447.50565869635,
              5088884.583272766
            ],
            [
              275902.979139489,
              5073814.027019551
            ]
          ]
        ]
      }
    }
  ]
}